HULIANWANG DIGUI-01     
1 62323U 24240A   26088.14376736  .00000034  00000+0  45800-4 0  9996
2 62323  86.5056  10.2279 0002038  78.8644 281.2719 13.24411217 62047
HULIANWANG DIGUI-02     
1 62324U 24240B   26088.15121729  .00000048  00000+0  78125-4 0  9999
2 62324  86.5085  10.3620 0002018  80.0164 280.1198 13.24410714 62052
HULIANWANG DIGUI-03     
1 62325U 24240C   26088.21163656  .00000034  00000+0  44713-4 0  9993
2 62325  86.5039  10.1206 0002043  76.8080 283.3282 13.24410036 62054
HULIANWANG DIGUI-04     
1 62326U 24240D   26088.20411722  .00000053  00000+0  88852-4 0  9996
2 62326  86.5048  10.1568 0002121  75.1774 284.9594 13.24410224 62057
HULIANWANG DIGUI-05     
1 62327U 24240E   26088.19661357  .00000063  00000+0  11164-3 0  9998
2 62327  86.5100  10.3909 0002100  72.9686 287.1678 13.24410957 62053
HULIANWANG DIGUI-06     
1 62328U 24240F   26088.18137670  .00000083  00000+0  16028-3 0  9990
2 62328  86.5037  10.1006 0002183  78.4179 281.7200 13.24411924 62054
HULIANWANG DIGUI-07     
1 62329U 24240G   26088.17394225  .00000061  00000+0  10859-3 0  9993
2 62329  86.5008   9.9645 0002092  78.0225 282.1144 13.24411244 62052
HULIANWANG DIGUI-08     
1 62330U 24240H   26088.18907304  .00000086  00000+0  16617-3 0  9999
2 62330  86.5091  10.3489 0002155  72.3176 287.8194 13.24411471 62059
HULIANWANG DIGUI-09     
1 62331U 24240J   26088.16630932  .00000057  00000+0  98335-4 0  9994
2 62331  86.5057  10.2439 0002060  77.5182 282.6183 13.24410537 62047
HULIANWANG DIGUI-10     
1 62332U 24240K   26088.15880259  .00000043  00000+0  65929-4 0  9991
2 62332  86.5087  10.3759 0002148  78.1199 282.0176 13.24410416 62041
HULIANWANG DIGUI-11     
1 62971U 25030A   26088.16907199 -.00000081  00000+0  92849-4 0  9996
2 62971  49.9998 162.8278 0001025 251.3322 108.7439 13.29325042 55211
HULIANWANG DIGUI-12     
1 62972U 25030B   26088.17734376 -.00000080  00000+0  94356-4 0  9997
2 62972  50.0013 162.9202 0001010 250.1812 109.8951 13.29323290 55210
HULIANWANG DIGUI-13     
1 62973U 25030C   26088.23591476 -.00000081  00000+0  93495-4 0  9991
2 62973  50.0017 162.5766 0000897 241.8367 118.2414 13.29323573 55223
HULIANWANG DIGUI-14     
1 62974U 25030D   26088.21090808 -.00000096  00000+0  59613-4 0  9993
2 62974  50.0022 162.4651 0000913 243.7060 116.3718 13.29324176 55228
HULIANWANG DIGUI-15     
1 62975U 25030E   26088.22759098 -.00000081  00000+0  93542-4 0  9991
2 62975  50.0017 162.5359 0000902 248.2549 111.8227 13.29324066 55222
HULIANWANG DIGUI-16     
1 62976U 25030F   26088.20250557 -.00000085  00000+0  84216-4 0  9998
2 62976  50.0039 162.4774 0000920 241.6438 118.4341 13.29323633 55220
