[{"OBJECT_NAME":"HULIANWANG DIGUI-01","OBJECT_ID":"2024-240A","EPOCH":"2026-03-29T03:27:01.499904","MEAN_MOTION":13.24411217,"ECCENTRICITY":0.0002038,"INCLINATION":86.5056,"RA_OF_ASC_NODE":10.2279,"ARG_OF_PERICENTER":78.8644,"MEAN_ANOMALY":281.2719,"EPHEMERIS_TYPE":0,"CLASSIFICATION_TYPE":"U","NORAD_CAT_ID":62323,"ELEMENT_SET_NO":999,"REV_AT_EPOCH":6204,"BSTAR":4.58e-5,"MEAN_MOTION_DOT":3.4e-7,"MEAN_MOTION_DDOT":0},{"OBJECT_NAME":"HULIANWANG DIGUI-02","OBJECT_ID":"2024-240B","EPOCH":"2026-03-29T03:37:45.173856","MEAN_MOTION":13.24410714,"ECCENTRICITY":0.0002018,"INCLINATION":86.5085,"RA_OF_ASC_NODE":10.362,"ARG_OF_PERICENTER":80.0164,"MEAN_ANOMALY":280.1198,"EPHEMERIS_TYPE":0,"CLASSIFICATION_TYPE":"U","NORAD_CAT_ID":62324,"ELEMENT_SET_NO":999,"REV_AT_EPOCH":6205,"BSTAR":7.8125e-5,"MEAN_MOTION_DOT":4.8e-7,"MEAN_MOTION_DDOT":0},{"OBJECT_NAME":"HULIANWANG DIGUI-03","OBJECT_ID":"2024-240C","EPOCH":"2026-03-29T05:04:45.398784","MEAN_MOTION":13.24410036,"ECCENTRICITY":0.0002043,"INCLINATION":86.5039,"RA_OF_ASC_NODE":10.1206,"ARG_OF_PERICENTER":76.808,"MEAN_ANOMALY":283.3282,"EPHEMERIS_TYPE":0,"CLASSIFICATION_TYPE":"U","NORAD_CAT_ID":62325,"ELEMENT_SET_NO":999,"REV_AT_EPOCH":6205,"BSTAR":4.4713e-5,"MEAN_MOTION_DOT":3.4e-7,"MEAN_MOTION_DDOT":0},{"OBJECT_NAME":"HULIANWANG DIGUI-04","OBJECT_ID":"2024-240D","EPOCH":"2026-03-29T04:53:55.727808","MEAN_MOTION":13.24410224,"ECCENTRICITY":0.0002121,"INCLINATION":86.5048,"RA_OF_ASC_NODE":10.1568,"ARG_OF_PERICENTER":75.1774,"MEAN_ANOMALY":284.9594,"EPHEMERIS_TYPE":0,"CLASSIFICATION_TYPE":"U","NORAD_CAT_ID":62326,"ELEMENT_SET_NO":999,"REV_AT_EPOCH":6205,"BSTAR":8.8852e-5,"MEAN_MOTION_DOT":5.3e-7,"MEAN_MOTION_DDOT":0},{"OBJECT_NAME":"HULIANWANG DIGUI-05","OBJECT_ID":"2024-240E","EPOCH":"2026-03-29T04:43:07.412448","MEAN_MOTION":13.24410957,"ECCENTRICITY":0.00021,"INCLINATION":86.51,"RA_OF_ASC_NODE":10.3909,"ARG_OF_PERICENTER":72.9686,"MEAN_ANOMALY":287.1678,"EPHEMERIS_TYPE":0,"CLASSIFICATION_TYPE":"U","NORAD_CAT_ID":62327,"ELEMENT_SET_NO":999,"REV_AT_EPOCH":6205,"BSTAR":0.00011164,"MEAN_MOTION_DOT":6.3e-7,"MEAN_MOTION_DDOT":0},{"OBJECT_NAME":"HULIANWANG DIGUI-06","OBJECT_ID":"2024-240F","EPOCH":"2026-03-29T04:21:10.946880","MEAN_MOTION":13.24411924,"ECCENTRICITY":0.0002183,"INCLINATION":86.5037,"RA_OF_ASC_NODE":10.1006,"ARG_OF_PERICENTER":78.4179,"MEAN_ANOMALY":281.72,"EPHEMERIS_TYPE":0,"CLASSIFICATION_TYPE":"U","NORAD_CAT_ID":62328,"ELEMENT_SET_NO":999,"REV_AT_EPOCH":6205,"BSTAR":0.00016028,"MEAN_MOTION_DOT":8.3e-7,"MEAN_MOTION_DDOT":0},{"OBJECT_NAME":"HULIANWANG DIGUI-07","OBJECT_ID":"2024-240G","EPOCH":"2026-03-29T04:10:28.610400","MEAN_MOTION":13.24411244,"ECCENTRICITY":0.0002092,"INCLINATION":86.5008,"RA_OF_ASC_NODE":9.9645,"ARG_OF_PERICENTER":78.0225,"MEAN_ANOMALY":282.1144,"EPHEMERIS_TYPE":0,"CLASSIFICATION_TYPE":"U","NORAD_CAT_ID":62329,"ELEMENT_SET_NO":999,"REV_AT_EPOCH":6205,"BSTAR":0.00010859,"MEAN_MOTION_DOT":6.1e-7,"MEAN_MOTION_DDOT":0},{"OBJECT_NAME":"HULIANWANG DIGUI-08","OBJECT_ID":"2024-240H","EPOCH":"2026-03-29T04:32:15.910656","MEAN_MOTION":13.24411471,"ECCENTRICITY":0.0002155,"INCLINATION":86.5091,"RA_OF_ASC_NODE":10.3489,"ARG_OF_PERICENTER":72.3176,"MEAN_ANOMALY":287.8194,"EPHEMERIS_TYPE":0,"CLASSIFICATION_TYPE":"U","NORAD_CAT_ID":62330,"ELEMENT_SET_NO":999,"REV_AT_EPOCH":6205,"BSTAR":0.00016617,"MEAN_MOTION_DOT":8.6e-7,"MEAN_MOTION_DDOT":0},{"OBJECT_NAME":"HULIANWANG DIGUI-09","OBJECT_ID":"2024-240J","EPOCH":"2026-03-29T03:59:29.125248","MEAN_MOTION":13.24410537,"ECCENTRICITY":0.000206,"INCLINATION":86.5057,"RA_OF_ASC_NODE":10.2439,"ARG_OF_PERICENTER":77.5182,"MEAN_ANOMALY":282.6183,"EPHEMERIS_TYPE":0,"CLASSIFICATION_TYPE":"U","NORAD_CAT_ID":62331,"ELEMENT_SET_NO":999,"REV_AT_EPOCH":6204,"BSTAR":9.8335e-5,"MEAN_MOTION_DOT":5.7e-7,"MEAN_MOTION_DDOT":0},{"OBJECT_NAME":"HULIANWANG DIGUI-10","OBJECT_ID":"2024-240K","EPOCH":"2026-03-29T03:48:40.543776","MEAN_MOTION":13.24410416,"ECCENTRICITY":0.0002148,"INCLINATION":86.5087,"RA_OF_ASC_NODE":10.3759,"ARG_OF_PERICENTER":78.1199,"MEAN_ANOMALY":282.0176,"EPHEMERIS_TYPE":0,"CLASSIFICATION_TYPE":"U","NORAD_CAT_ID":62332,"ELEMENT_SET_NO":999,"REV_AT_EPOCH":6204,"BSTAR":6.5929e-5,"MEAN_MOTION_DOT":4.3e-7,"MEAN_MOTION_DDOT":0},{"OBJECT_NAME":"HULIANWANG DIGUI-11","OBJECT_ID":"2025-030A","EPOCH":"2026-03-29T04:03:27.819936","MEAN_MOTION":13.29325042,"ECCENTRICITY":0.0001025,"INCLINATION":49.9998,"RA_OF_ASC_NODE":162.8278,"ARG_OF_PERICENTER":251.3322,"MEAN_ANOMALY":108.7439,"EPHEMERIS_TYPE":0,"CLASSIFICATION_TYPE":"U","NORAD_CAT_ID":62971,"ELEMENT_SET_NO":999,"REV_AT_EPOCH":5521,"BSTAR":9.2849e-5,"MEAN_MOTION_DOT":-8.1e-7,"MEAN_MOTION_DDOT":0},{"OBJECT_NAME":"HULIANWANG DIGUI-12","OBJECT_ID":"2025-030B","EPOCH":"2026-03-29T04:15:22.500864","MEAN_MOTION":13.2932329,"ECCENTRICITY":0.000101,"INCLINATION":50.0013,"RA_OF_ASC_NODE":162.9202,"ARG_OF_PERICENTER":250.1812,"MEAN_ANOMALY":109.8951,"EPHEMERIS_TYPE":0,"CLASSIFICATION_TYPE":"U","NORAD_CAT_ID":62972,"ELEMENT_SET_NO":999,"REV_AT_EPOCH":5521,"BSTAR":9.4356e-5,"MEAN_MOTION_DOT":-8.0e-7,"MEAN_MOTION_DDOT":0},{"OBJECT_NAME":"HULIANWANG DIGUI-13","OBJECT_ID":"2025-030C","EPOCH":"2026-03-29T05:39:43.035264","MEAN_MOTION":13.29323573,"ECCENTRICITY":8.97e-5,"INCLINATION":50.0017,"RA_OF_ASC_NODE":162.5766,"ARG_OF_PERICENTER":241.8367,"MEAN_ANOMALY":118.2414,"EPHEMERIS_TYPE":0,"CLASSIFICATION_TYPE":"U","NORAD_CAT_ID":62973,"ELEMENT_SET_NO":999,"REV_AT_EPOCH":5522,"BSTAR":9.3495e-5,"MEAN_MOTION_DOT":-8.1e-7,"MEAN_MOTION_DDOT":0},{"OBJECT_NAME":"HULIANWANG DIGUI-14","OBJECT_ID":"2025-030D","EPOCH":"2026-03-29T05:03:42.458112","MEAN_MOTION":13.29324176,"ECCENTRICITY":9.13e-5,"INCLINATION":50.0022,"RA_OF_ASC_NODE":162.4651,"ARG_OF_PERICENTER":243.706,"MEAN_ANOMALY":116.3718,"EPHEMERIS_TYPE":0,"CLASSIFICATION_TYPE":"U","NORAD_CAT_ID":62974,"ELEMENT_SET_NO":999,"REV_AT_EPOCH":5522,"BSTAR":5.9613e-5,"MEAN_MOTION_DOT":-9.6e-7,"MEAN_MOTION_DDOT":0},{"OBJECT_NAME":"HULIANWANG DIGUI-15","OBJECT_ID":"2025-030E","EPOCH":"2026-03-29T05:27:43.860672","MEAN_MOTION":13.29324066,"ECCENTRICITY":9.02e-5,"INCLINATION":50.0017,"RA_OF_ASC_NODE":162.5359,"ARG_OF_PERICENTER":248.2549,"MEAN_ANOMALY":111.8227,"EPHEMERIS_TYPE":0,"CLASSIFICATION_TYPE":"U","NORAD_CAT_ID":62975,"ELEMENT_SET_NO":999,"REV_AT_EPOCH":5522,"BSTAR":9.3542e-5,"MEAN_MOTION_DOT":-8.1e-7,"MEAN_MOTION_DDOT":0},{"OBJECT_NAME":"HULIANWANG DIGUI-16","OBJECT_ID":"2025-030F","EPOCH":"2026-03-29T04:51:36.481248","MEAN_MOTION":13.29323633,"ECCENTRICITY":9.2e-5,"INCLINATION":50.0039,"RA_OF_ASC_NODE":162.4774,"ARG_OF_PERICENTER":241.6438,"MEAN_ANOMALY":118.4341,"EPHEMERIS_TYPE":0,"CLASSIFICATION_TYPE":"U","NORAD_CAT_ID":62976,"ELEMENT_SET_NO":999,"REV_AT_EPOCH":5522,"BSTAR":8.4216e-5,"MEAN_MOTION_DOT":-8.5e-7,"MEAN_MOTION_DDOT":0}]
